start=new Date('2022-09-09T00:00:00.000Z').valueOf();
sats=[{"GP_ID":"212091182","MEAN_MOTION_DOT":"0.00002367","SITE":"AFETR","OBJECT_TYPE":"PAYLOAD","OBJECT_NAME":"STARLINK-2505","MEAN_MOTION":"15.06399042","ARG_OF_PERICENTER":"85.4022","TIME_SYSTEM":"UTC","LAUNCH_DATE":"2021-05-04","ECCENTRICITY":"0.00013550","SEMIMAJOR_AXIS":"6925.351","RA_OF_ASC_NODE":"268.3448","INCLINATION":"53.0543","BSTAR":"0.00017778000000","ELEMENT_SET_NO":"999","EPHEMERIS_TYPE":"0","CLASSIFICATION_TYPE":"U","CENTER_NAME":"EARTH","FILE":"3564431","RCS_SIZE":"LARGE","MEAN_MOTION_DDOT":"0.0000000000000","DECAY_DATE":null,"COUNTRY_CODE":"US","REV_AT_EPOCH":"7540","MEAN_ANOMALY":"274.7121","OBJECT_ID":"2021-038BL","NORAD_CAT_ID":"48411","TLE_LINE2":"2 48411  53.0543 268.3448 0001355  85.4022 274.7121 15.06399042 75409","PERIOD":"95.592","APOAPSIS":"548.155","REF_FRAME":"TEME","PERIAPSIS":"546.278","TLE_LINE1":"1 48411U 21038BL  22251.78932360  .00002367  00000-0  17778-3 0  9993","EPOCH":"2022-09-08T18:56:37.559040","MEAN_ELEMENT_THEORY":"SGP4"},{"MEAN_MOTION_DDOT":"0.0000000000000","DECAY_DATE":null,"COUNTRY_CODE":"US","REV_AT_EPOCH":"7592","MEAN_ANOMALY":"260.7645","OBJECT_ID":"2021-038BM","TLE_LINE2":"2 48412  53.0547 270.1816 0001485  99.3512 260.7645 15.06392335 75927","NORAD_CAT_ID":"48412","APOAPSIS":"548.265","PERIOD":"95.593","REF_FRAME":"TEME","PERIAPSIS":"546.209","TLE_LINE1":"1 48412U 21038BM  22251.47607799  .00002829  00000-0  20880-3 0  9996","EPOCH":"2022-09-08T11:25:33.138336","MEAN_ELEMENT_THEORY":"SGP4","MEAN_MOTION_DOT":"0.00002829","GP_ID":"212069392","SITE":"AFETR","OBJECT_TYPE":"PAYLOAD","OBJECT_NAME":"STARLINK-2581","ARG_OF_PERICENTER":"99.3512","MEAN_MOTION":"15.06392335","TIME_SYSTEM":"UTC","LAUNCH_DATE":"2021-05-04","ECCENTRICITY":"0.00014850","SEMIMAJOR_AXIS":"6925.372","INCLINATION":"53.0547","RA_OF_ASC_NODE":"270.1816","EPHEMERIS_TYPE":"0","ELEMENT_SET_NO":"999","BSTAR":"0.00020880000000","CENTER_NAME":"EARTH","CLASSIFICATION_TYPE":"U","FILE":"3564390","RCS_SIZE":"LARGE"},{"MEAN_MOTION_DOT":"-0.00001388","GP_ID":"212049976","OBJECT_TYPE":"PAYLOAD","SITE":"AFETR","MEAN_MOTION":"15.06395344","ARG_OF_PERICENTER":"78.7605","OBJECT_NAME":"STARLINK-2461","TIME_SYSTEM":"UTC","LAUNCH_DATE":"2021-05-09","ECCENTRICITY":"0.00014740","SEMIMAJOR_AXIS":"6925.363","INCLINATION":"53.0542","RA_OF_ASC_NODE":"165.9125","EPHEMERIS_TYPE":"0","ELEMENT_SET_NO":"999","BSTAR":"-0.00007429200000","CENTER_NAME":"EARTH","CLASSIFICATION_TYPE":"U","FILE":"3563723","RCS_SIZE":"LARGE","DECAY_DATE":null,"MEAN_MOTION_DDOT":"0.0000000000000","COUNTRY_CODE":"US","REV_AT_EPOCH":"7386","MEAN_ANOMALY":"281.3550","OBJECT_ID":"2021-040A","TLE_LINE2":"2 48428  53.0542 165.9125 0001474  78.7605 281.3550 15.06395344 73863","NORAD_CAT_ID":"48428","APOAPSIS":"548.249","PERIOD":"95.592","REF_FRAME":"TEME","PERIAPSIS":"546.207","TLE_LINE1":"1 48428U 21040A   22251.21847798 -.00001388  00000-0 -74292-4 0  9991","EPOCH":"2022-09-08T05:14:36.497472","MEAN_ELEMENT_THEORY":"SGP4"},{"LAUNCH_DATE":"2021-05-09","TIME_SYSTEM":"UTC","ECCENTRICITY":"0.00012370","MEAN_MOTION_DOT":"0.00004536","GP_ID":"212092685","OBJECT_TYPE":"PAYLOAD","SITE":"AFETR","MEAN_MOTION":"15.06374332","OBJECT_NAME":"STARLINK-2749","ARG_OF_PERICENTER":"67.6755","CENTER_NAME":"EARTH","CLASSIFICATION_TYPE":"U","RCS_SIZE":"LARGE","FILE":"3564431","SEMIMAJOR_AXIS":"6925.427","ELEMENT_SET_NO":"999","BSTAR":"0.00032346000000","EPHEMERIS_TYPE":"0","INCLINATION":"53.0540","RA_OF_ASC_NODE":"133.9582","MEAN_ANOMALY":"292.4365","OBJECT_ID":"2021-040B","APOAPSIS":"548.149","PERIOD":"95.594","TLE_LINE2":"2 48429  53.0540 133.9582 0001237  67.6755 292.4365 15.06374332 74349","NORAD_CAT_ID":"48429","DECAY_DATE":null,"MEAN_MOTION_DDOT":"0.0000000000000","REV_AT_EPOCH":"7434","COUNTRY_CODE":"US","MEAN_ELEMENT_THEORY":"SGP4","REF_FRAME":"TEME","TLE_LINE1":"1 48429U 21040B   22251.65249801  .00004536  00000-0  32346-3 0  9990","EPOCH":"2022-09-08T15:39:35.828064","PERIAPSIS":"546.436"},{"MEAN_MOTION_DDOT":"0.0000000000000","DECAY_DATE":null,"COUNTRY_CODE":"US","REV_AT_EPOCH":"7435","MEAN_ANOMALY":"278.8988","OBJECT_ID":"2021-040C","TLE_LINE2":"2 48430  53.0537 133.8134 0001484  81.2169 278.8988 15.06396823 74353","NORAD_CAT_ID":"48430","APOAPSIS":"548.251","PERIOD":"95.592","REF_FRAME":"TEME","PERIAPSIS":"546.196","TLE_LINE1":"1 48430U 21040C   22251.68472205  .00003640  00000-0  26315-3 0  9995","EPOCH":"2022-09-08T16:25:59.985120","MEAN_ELEMENT_THEORY":"SGP4","GP_ID":"212092427","MEAN_MOTION_DOT":"0.00003640","ARG_OF_PERICENTER":"81.2169","SITE":"AFETR","OBJECT_TYPE":"PAYLOAD","MEAN_MOTION":"15.06396823","OBJECT_NAME":"STARLINK-2729","TIME_SYSTEM":"UTC","LAUNCH_DATE":"2021-05-09","ECCENTRICITY":"0.00014840","SEMIMAJOR_AXIS":"6925.358","INCLINATION":"53.0537","RA_OF_ASC_NODE":"133.8134","EPHEMERIS_TYPE":"0","BSTAR":"0.00026315000000","ELEMENT_SET_NO":"999","CENTER_NAME":"EARTH","CLASSIFICATION_TYPE":"U","FILE":"3564431","RCS_SIZE":"LARGE"},{"EPHEMERIS_TYPE":"0","ELEMENT_SET_NO":"999","BSTAR":"0.00039235000000","RA_OF_ASC_NODE":"131.7341","INCLINATION":"53.0537","SEMIMAJOR_AXIS":"6925.396","RCS_SIZE":"LARGE","FILE":"3563723","CLASSIFICATION_TYPE":"U","CENTER_NAME":"EARTH","OBJECT_NAME":"STARLINK-2700","SITE":"AFETR","OBJECT_TYPE":"PAYLOAD","MEAN_MOTION":"15.06384481","ARG_OF_PERICENTER":"81.0011","GP_ID":"212049728","MEAN_MOTION_DOT":"0.00005565","ECCENTRICITY":"0.00017430","LAUNCH_DATE":"2021-05-09","TIME_SYSTEM":"UTC","TLE_LINE1":"1 48431U 21040D   22251.03463602  .00005565  00000-0  39235-3 0  9999","EPOCH":"2022-09-08T00:49:52.552128","PERIAPSIS":"546.054","REF_FRAME":"TEME","MEAN_ELEMENT_THEORY":"SGP4","REV_AT_EPOCH":"7432","COUNTRY_CODE":"US","MEAN_MOTION_DDOT":"0.0000000000000","DECAY_DATE":null,"PERIOD":"95.593","APOAPSIS":"548.468","NORAD_CAT_ID":"48431","TLE_LINE2":"2 48431  53.0537 131.7341 0001743  81.0011 279.1175 15.06384481 74329","MEAN_ANOMALY":"279.1175","OBJECT_ID":"2021-040D"},{"GP_ID":"212091434","MEAN_MOTION_DOT":"0.00003231","SITE":"AFETR","OBJECT_NAME":"STARLINK-2680","OBJECT_TYPE":"PAYLOAD","MEAN_MOTION":"15.06387586","ARG_OF_PERICENTER":"102.1111","TIME_SYSTEM":"UTC","LAUNCH_DATE":"2021-05-09","ECCENTRICITY":"0.00015600","SEMIMAJOR_AXIS":"6925.387","INCLINATION":"53.0556","RA_OF_ASC_NODE":"124.2274","EPHEMERIS_TYPE":"0","BSTAR":"0.00023580000000","ELEMENT_SET_NO":"999","CENTER_NAME":"EARTH","CLASSIFICATION_TYPE":"U","FILE":"3564431","RCS_SIZE":"LARGE","DECAY_DATE":null,"MEAN_MOTION_DDOT":"0.0000000000000","COUNTRY_CODE":"US","REV_AT_EPOCH":"7448","MEAN_ANOMALY":"258.0053","OBJECT_ID":"2021-040E","TLE_LINE2":"2 48432  53.0556 124.2274 0001560 102.1111 258.0053 15.06387586 74483","NORAD_CAT_ID":"48432","APOAPSIS":"548.332","PERIOD":"95.593","REF_FRAME":"TEME","TLE_LINE1":"1 48432U 21040E   22251.67926387  .00003231  00000-0  23580-3 0  9998","EPOCH":"2022-09-08T16:18:08.398368","PERIAPSIS":"546.171","MEAN_ELEMENT_THEORY":"SGP4"},{"REV_AT_EPOCH":"7443","COUNTRY_CODE":"US","DECAY_DATE":null,"MEAN_MOTION_DDOT":"0.0000000000000","PERIOD":"95.592","APOAPSIS":"548.132","NORAD_CAT_ID":"48433","TLE_LINE2":"2 48433  53.0538 128.4693 0001328  86.1232 273.9908 15.06400548 74436","MEAN_ANOMALY":"273.9908","OBJECT_ID":"2021-040F","TLE_LINE1":"1 48433U 21040F   22251.82438778  .00007150  00000-0  49839-3 0  9997","PERIAPSIS":"546.292","EPOCH":"2022-09-08T19:47:07.104192","REF_FRAME":"TEME","MEAN_ELEMENT_THEORY":"SGP4","SITE":"AFETR","OBJECT_NAME":"STARLINK-2699","OBJECT_TYPE":"PAYLOAD","MEAN_MOTION":"15.06400548","ARG_OF_PERICENTER":"86.1232","MEAN_MOTION_DOT":"0.00007150","GP_ID":"212092185","ECCENTRICITY":"0.00013280","LAUNCH_DATE":"2021-05-09","TIME_SYSTEM":"UTC","EPHEMERIS_TYPE":"0","ELEMENT_SET_NO":"999","BSTAR":"0.00049839000000","RA_OF_ASC_NODE":"128.4693","INCLINATION":"53.0538","SEMIMAJOR_AXIS":"6925.347","RCS_SIZE":"LARGE","FILE":"3564431","CLASSIFICATION_TYPE":"U","CENTER_NAME":"EARTH"},{"LAUNCH_DATE":"2021-05-09","TIME_SYSTEM":"UTC","ECCENTRICITY":"0.00014650","MEAN_MOTION_DOT":"0.00000281","GP_ID":"212049478","SITE":"AFETR","OBJECT_NAME":"STARLINK-2692","OBJECT_TYPE":"PAYLOAD","ARG_OF_PERICENTER":"99.6722","MEAN_MOTION":"15.06380717","CENTER_NAME":"EARTH","CLASSIFICATION_TYPE":"U","RCS_SIZE":"LARGE","FILE":"3563723","SEMIMAJOR_AXIS":"6925.408","ELEMENT_SET_NO":"999","EPHEMERIS_TYPE":"0","BSTAR":"0.00003775800000","INCLINATION":"53.0550","RA_OF_ASC_NODE":"136.8348","MEAN_ANOMALY":"260.4432","OBJECT_ID":"2021-040G","APOAPSIS":"548.287","PERIOD":"95.593","TLE_LINE2":"2 48434  53.0550 136.8348 0001465  99.6722 260.4432 15.06380717 74265","NORAD_CAT_ID":"48434","MEAN_MOTION_DDOT":"0.0000000000000","DECAY_DATE":null,"REV_AT_EPOCH":"7426","COUNTRY_CODE":"US","MEAN_ELEMENT_THEORY":"SGP4","REF_FRAME":"TEME","TLE_LINE1":"1 48434U 21040G   22251.12547895  .00000281  00000-0  37758-4 0  9998","EPOCH":"2022-09-08T03:00:41.381280","PERIAPSIS":"546.258"},{"GP_ID":"212091685","MEAN_MOTION_DOT":"-0.00000508","OBJECT_TYPE":"PAYLOAD","SITE":"AFETR","MEAN_MOTION":"15.06405416","ARG_OF_PERICENTER":"75.9343","OBJECT_NAME":"STARLINK-2633","TIME_SYSTEM":"UTC","LAUNCH_DATE":"2021-05-09","ECCENTRICITY":"0.00014960","SEMIMAJOR_AXIS":"6925.332","RA_OF_ASC_NODE":"143.0294","INCLINATION":"53.0551","ELEMENT_SET_NO":"999","EPHEMERIS_TYPE":"0","BSTAR":"-0.00001521100000","CLASSIFICATION_TYPE":"U","CENTER_NAME":"EARTH","FILE":"3564431","RCS_SIZE":"LARGE","DECAY_DATE":null,"MEAN_MOTION_DDOT":"0.0000000000000","COUNTRY_CODE":"US","REV_AT_EPOCH":"7423","MEAN_ANOMALY":"284.1812","OBJECT_ID":"2021-040H","NORAD_CAT_ID":"48435","TLE_LINE2":"2 48435  53.0551 143.0294 0001496  75.9343 284.1812 15.06405416 74233","PERIOD":"95.592","APOAPSIS":"548.233","REF_FRAME":"TEME","TLE_LINE1":"1 48435U 21040H   22251.86168149 -.00000508  00000-0 -15211-4 0  9995","PERIAPSIS":"546.161","EPOCH":"2022-09-08T20:40:49.280736","MEAN_ELEMENT_THEORY":"SGP4"}];
